{"fetched_at":"2026-07-19T17:31:13.022Z","source":"https://celestrak.org/NORAD/elements/gp.php?GROUP=qianfan&FORMAT=JSON","constellation":"qianfan","records":[{"OBJECT_NAME":"QIANFAN-65","OBJECT_ID":"2025-016L","EPOCH":"2026-07-19T05:12:23.965056","CLASSIFICATION_TYPE":"U","MEAN_MOTION":13.51030599,"ECCENTRICITY":0.00160071,"INCLINATION":88.9694,"RA_OF_ASC_NODE":80.3655,"ARG_OF_PERICENTER":72.7629,"MEAN_ANOMALY":287.5273,"EPHEMERIS_TYPE":0,"NORAD_CAT_ID":62795,"ELEMENT_SET_NO":999,"REV_AT_EPOCH":7674,"BSTAR":0.000094080049,"MEAN_MOTION_DOT":7.3e-7,"MEAN_MOTION_DDOT":0},{"OBJECT_NAME":"QIANFAN-66","OBJECT_ID":"2025-016M","EPOCH":"2026-07-19T05:54:03.006432","CLASSIFICATION_TYPE":"U","MEAN_MOTION":13.51023816,"ECCENTRICITY":0.00170841,"INCLINATION":88.9714,"RA_OF_ASC_NODE":80.3756,"ARG_OF_PERICENTER":68.795,"MEAN_ANOMALY":291.5024,"EPHEMERIS_TYPE":0,"NORAD_CAT_ID":62796,"ELEMENT_SET_NO":999,"REV_AT_EPOCH":7679,"BSTAR":0.00011155632,"MEAN_MOTION_DOT":8.4e-7,"MEAN_MOTION_DDOT":0},{"OBJECT_NAME":"QIANFAN-67","OBJECT_ID":"2025-016N","EPOCH":"2026-07-19T06:00:00.022464","CLASSIFICATION_TYPE":"U","MEAN_MOTION":13.51012466,"ECCENTRICITY":0.00170837,"INCLINATION":88.9704,"RA_OF_ASC_NODE":80.3793,"ARG_OF_PERICENTER":74.8525,"MEAN_ANOMALY":285.4514,"EPHEMERIS_TYPE":0,"NORAD_CAT_ID":62797,"ELEMENT_SET_NO":999,"REV_AT_EPOCH":7676,"BSTAR":0.00011171634,"MEAN_MOTION_DOT":8.4e-7,"MEAN_MOTION_DDOT":0},{"OBJECT_NAME":"QIANFAN-68","OBJECT_ID":"2025-016P","EPOCH":"2026-07-19T05:47:51.454464","CLASSIFICATION_TYPE":"U","MEAN_MOTION":13.51025179,"ECCENTRICITY":0.00171541,"INCLINATION":88.9708,"RA_OF_ASC_NODE":80.4331,"ARG_OF_PERICENTER":72.9966,"MEAN_ANOMALY":287.3063,"EPHEMERIS_TYPE":0,"NORAD_CAT_ID":62798,"ELEMENT_SET_NO":999,"REV_AT_EPOCH":7674,"BSTAR":0.00010360165,"MEAN_MOTION_DOT":7.9e-7,"MEAN_MOTION_DDOT":0},{"OBJECT_NAME":"QIANFAN-69","OBJECT_ID":"2025-016Q","EPOCH":"2026-07-19T06:11:34.141920","CLASSIFICATION_TYPE":"U","MEAN_MOTION":13.51019042,"ECCENTRICITY":0.00178951,"INCLINATION":88.9687,"RA_OF_ASC_NODE":80.2542,"ARG_OF_PERICENTER":74.1993,"MEAN_ANOMALY":286.113,"EPHEMERIS_TYPE":0,"NORAD_CAT_ID":62799,"ELEMENT_SET_NO":999,"REV_AT_EPOCH":7678,"BSTAR":0.00011195814,"MEAN_MOTION_DOT":8.5e-7,"MEAN_MOTION_DDOT":0},{"OBJECT_NAME":"QIANFAN-70","OBJECT_ID":"2025-016R","EPOCH":"2026-07-19T06:35:22.797024","CLASSIFICATION_TYPE":"U","MEAN_MOTION":13.51017397,"ECCENTRICITY":0.00174433,"INCLINATION":88.9707,"RA_OF_ASC_NODE":80.4366,"ARG_OF_PERICENTER":65.6542,"MEAN_ANOMALY":294.6428,"EPHEMERIS_TYPE":0,"NORAD_CAT_ID":62800,"ELEMENT_SET_NO":999,"REV_AT_EPOCH":7674,"BSTAR":0.000094344529,"MEAN_MOTION_DOT":7.3e-7,"MEAN_MOTION_DDOT":0},{"OBJECT_NAME":"QIANFAN-71","OBJECT_ID":"2025-016S","EPOCH":"2026-07-19T06:29:37.728384","CLASSIFICATION_TYPE":"U","MEAN_MOTION":13.51021378,"ECCENTRICITY":0.00178093,"INCLINATION":88.9701,"RA_OF_ASC_NODE":80.4033,"ARG_OF_PERICENTER":77.3074,"MEAN_ANOMALY":283.0067,"EPHEMERIS_TYPE":0,"NORAD_CAT_ID":62801,"ELEMENT_SET_NO":999,"REV_AT_EPOCH":7674,"BSTAR":0.000086014553,"MEAN_MOTION_DOT":6.8e-7,"MEAN_MOTION_DDOT":0},{"OBJECT_NAME":"QIANFAN-72","OBJECT_ID":"2025-016T","EPOCH":"2026-07-19T05:06:27.137376","CLASSIFICATION_TYPE":"U","MEAN_MOTION":13.5101491,"ECCENTRICITY":0.00210654,"INCLINATION":88.9691,"RA_OF_ASC_NODE":80.4014,"ARG_OF_PERICENTER":83.9313,"MEAN_ANOMALY":276.4238,"EPHEMERIS_TYPE":0,"NORAD_CAT_ID":62802,"ELEMENT_SET_NO":999,"REV_AT_EPOCH":7672,"BSTAR":0.00011864812,"MEAN_MOTION_DOT":8.9e-7,"MEAN_MOTION_DDOT":0},{"OBJECT_NAME":"QIANFAN-73","OBJECT_ID":"2025-046A","EPOCH":"2026-07-19T05:45:18.336384","CLASSIFICATION_TYPE":"U","MEAN_MOTION":13.51015408,"ECCENTRICITY":0.00145098,"INCLINATION":88.9721,"RA_OF_ASC_NODE":297.3536,"ARG_OF_PERICENTER":203.7379,"MEAN_ANOMALY":156.3105,"EPHEMERIS_TYPE":0,"NORAD_CAT_ID":63159,"ELEMENT_SET_NO":999,"REV_AT_EPOCH":7691,"BSTAR":0.000019251942,"MEAN_MOTION_DOT":2.4e-7,"MEAN_MOTION_DDOT":0},{"OBJECT_NAME":"QIANFAN-74","OBJECT_ID":"2025-046B","EPOCH":"2026-07-19T05:21:50.757696","CLASSIFICATION_TYPE":"U","MEAN_MOTION":13.51023624,"ECCENTRICITY":0.00025368,"INCLINATION":88.9723,"RA_OF_ASC_NODE":297.245,"ARG_OF_PERICENTER":104.7223,"MEAN_ANOMALY":255.4209,"EPHEMERIS_TYPE":0,"NORAD_CAT_ID":63160,"ELEMENT_SET_NO":999,"REV_AT_EPOCH":7697,"BSTAR":0.00016534077,"MEAN_MOTION_DOT":0.00000119,"MEAN_MOTION_DDOT":0},{"OBJECT_NAME":"QIANFAN-75","OBJECT_ID":"2025-046C","EPOCH":"2026-07-19T06:50:38.888448","CLASSIFICATION_TYPE":"U","MEAN_MOTION":13.51015908,"ECCENTRICITY":0.00154879,"INCLINATION":88.9724,"RA_OF_ASC_NODE":297.4752,"ARG_OF_PERICENTER":207.0985,"MEAN_ANOMALY":152.9359,"EPHEMERIS_TYPE":0,"NORAD_CAT_ID":63161,"ELEMENT_SET_NO":999,"REV_AT_EPOCH":7685,"BSTAR":0.00011581447,"MEAN_MOTION_DOT":8.7e-7,"MEAN_MOTION_DDOT":0},{"OBJECT_NAME":"QIANFAN-76","OBJECT_ID":"2025-046D","EPOCH":"2026-07-19T06:44:39.232896","CLASSIFICATION_TYPE":"U","MEAN_MOTION":13.51015195,"ECCENTRICITY":0.00130135,"INCLINATION":88.9724,"RA_OF_ASC_NODE":297.4555,"ARG_OF_PERICENTER":206.1185,"MEAN_ANOMALY":153.9311,"EPHEMERIS_TYPE":0,"NORAD_CAT_ID":63162,"ELEMENT_SET_NO":999,"REV_AT_EPOCH":7686,"BSTAR":0.00016411946,"MEAN_MOTION_DOT":0.00000118,"MEAN_MOTION_DDOT":0},{"OBJECT_NAME":"QIANFAN-77","OBJECT_ID":"2025-046E","EPOCH":"2026-07-19T06:37:30.019296","CLASSIFICATION_TYPE":"U","MEAN_MOTION":13.96223426,"ECCENTRICITY":0.00173102,"INCLINATION":88.9726,"RA_OF_ASC_NODE":293.663,"ARG_OF_PERICENTER":116.4464,"MEAN_ANOMALY":243.8491,"EPHEMERIS_TYPE":0,"NORAD_CAT_ID":63163,"ELEMENT_SET_NO":999,"REV_AT_EPOCH":7894,"BSTAR":0.00013732762,"MEAN_MOTION_DOT":0.00000203,"MEAN_MOTION_DDOT":0},{"OBJECT_NAME":"QIANFAN-78","OBJECT_ID":"2025-046F","EPOCH":"2026-07-19T05:57:20.636928","CLASSIFICATION_TYPE":"U","MEAN_MOTION":13.51010441,"ECCENTRICITY":0.00142954,"INCLINATION":88.9723,"RA_OF_ASC_NODE":297.3208,"ARG_OF_PERICENTER":209.2135,"MEAN_ANOMALY":150.8218,"EPHEMERIS_TYPE":0,"NORAD_CAT_ID":63164,"ELEMENT_SET_NO":999,"REV_AT_EPOCH":7693,"BSTAR":0.00014962032,"MEAN_MOTION_DOT":0.00000109,"MEAN_MOTION_DDOT":0},{"OBJECT_NAME":"QIANFAN-79","OBJECT_ID":"2025-046G","EPOCH":"2026-07-19T06:38:42.705024","CLASSIFICATION_TYPE":"U","MEAN_MOTION":13.5102049,"ECCENTRICITY":0.00141507,"INCLINATION":88.9726,"RA_OF_ASC_NODE":297.4332,"ARG_OF_PERICENTER":207.5086,"MEAN_ANOMALY":152.5317,"EPHEMERIS_TYPE":0,"NORAD_CAT_ID":63165,"ELEMENT_SET_NO":999,"REV_AT_EPOCH":7688,"BSTAR":0.00014903331,"MEAN_MOTION_DOT":0.00000108,"MEAN_MOTION_DDOT":0},{"OBJECT_NAME":"QIANFAN-80","OBJECT_ID":"2025-046H","EPOCH":"2026-07-19T07:02:33.304992","CLASSIFICATION_TYPE":"U","MEAN_MOTION":13.5101755,"ECCENTRICITY":0.00128336,"INCLINATION":88.9724,"RA_OF_ASC_NODE":297.1325,"ARG_OF_PERICENTER":211.3448,"MEAN_ANOMALY":148.694,"EPHEMERIS_TYPE":0,"NORAD_CAT_ID":63166,"ELEMENT_SET_NO":999,"REV_AT_EPOCH":7704,"BSTAR":0.00016899821,"MEAN_MOTION_DOT":0.00000121,"MEAN_MOTION_DDOT":0}]}
