QIANFAN-65              
1 62795U 25016L   26200.21694404  .00000073  00000+0  94080-4 0  9997
2 62795  88.9694  80.3655 0016007  72.7629 287.5273 13.51030599 76743
QIANFAN-66              
1 62796U 25016M   26200.24586813  .00000084  00000+0  11156-3 0  9999
2 62796  88.9714  80.3756 0017084  68.7950 291.5024 13.51023816 76795
QIANFAN-67              
1 62797U 25016N   26200.25000026  .00000084  00000+0  11172-3 0  9996
2 62797  88.9704  80.3793 0017083  74.8525 285.4514 13.51012466 76763
QIANFAN-68              
1 62798U 25016P   26200.24156776  .00000079  00000+0  10360-3 0  9992
2 62798  88.9708  80.4331 0017154  72.9966 287.3063 13.51025179 76747
QIANFAN-69              
1 62799U 25016Q   26200.25803405  .00000085  00000+0  11196-3 0  9997
2 62799  88.9687  80.2542 0017895  74.1993 286.1130 13.51019042 76780
QIANFAN-70              
1 62800U 25016R   26200.27456941  .00000073  00000+0  94345-4 0  9996
2 62800  88.9707  80.4366 0017443  65.6542 294.6428 13.51017397 76747
QIANFAN-71              
1 62801U 25016S   26200.27057556  .00000068  00000+0  86015-4 0  9995
2 62801  88.9701  80.4033 0017809  77.3074 283.0067 13.51021378 76744
QIANFAN-72              
1 62802U 25016T   26200.21281409  .00000089  00000+0  11865-3 0  9999
2 62802  88.9691  80.4014 0021065  83.9313 276.4238 13.51014910 76728
QIANFAN-73              
1 63159U 25046A   26200.23979556  .00000024  00000+0  19252-4 0  9995
2 63159  88.9721 297.3536 0014509 203.7379 156.3105 13.51015408 76918
QIANFAN-74              
1 63160U 25046B   26200.22350414  .00000119  00000+0  16534-3 0  9996
2 63160  88.9723 297.2450 0002536 104.7223 255.4209 13.51023624 76972
QIANFAN-75              
1 63161U 25046C   26200.28517232  .00000087  00000+0  11581-3 0  9997
2 63161  88.9724 297.4752 0015487 207.0985 152.9359 13.51015908 76852
QIANFAN-76              
1 63162U 25046D   26200.28100964  .00000118  00000+0  16412-3 0  9991
2 63162  88.9724 297.4555 0013013 206.1185 153.9311 13.51015195 76867
QIANFAN-77              
1 63163U 25046E   26200.27604189  .00000203  00000+0  13733-3 0  9997
2 63163  88.9726 293.6630 0017310 116.4464 243.8491 13.96223426 78945
QIANFAN-78              
1 63164U 25046F   26200.24815552  .00000109  00000+0  14962-3 0  9993
2 63164  88.9723 297.3208 0014295 209.2135 150.8218 13.51010441 76933
QIANFAN-79              
1 63165U 25046G   26200.27688316  .00000108  00000+0  14903-3 0  9997
2 63165  88.9726 297.4332 0014150 207.5086 152.5317 13.51020490 76880
QIANFAN-80              
1 63166U 25046H   26200.29344103  .00000121  00000+0  16900-3 0  9997
2 63166  88.9724 297.1325 0012833 211.3448 148.6940 13.51017550 77049
